ZORKY-2M 7              
1 67268U 25313W   26012.94997146  .00006890  00000+0  32084-3 0  9995
2 67268  97.4123  90.1440 0015455 183.9719 176.1396 15.20128461  2345
2025-313X               
1 67269U 25313X   26012.94919319  .00010230  00000+0  47229-3 0  9992
2 67269  97.4150  90.1599 0015309 182.4978 177.6184 15.20298633  2340
SITRO-TD-3              
1 67270U 25313Y   26012.88426767  .00007931  00000+0  36861-3 0  9991
2 67270  97.4123  90.0895 0015410 184.4623 175.6478 15.20142192  2333
2025-313Z               
1 67271U 25313Z   26012.95061409  .00004260  00000+0  20039-3 0  9990
2 67271  97.4118  90.1443 0015451 179.9947 180.1291 15.19998983  2341
2025-313AA              
1 67272U 25313AA  26012.94877400  .00008507  00000+0  39310-3 0  9996
2 67272  97.4123  90.1450 0015175 184.5144 175.5956 15.20323485  2347
2025-313AB              
1 67273U 25313AB  26012.95046516  .00003072  00000+0  14551-3 0  9996
2 67273  97.4136  90.1470 0014339 188.5408 171.5585 15.19987722  2344
2025-313AC              
1 67274U 25313AC  26012.94957018  .00005829  00000+0  27185-3 0  9993
2 67274  97.4111  90.1521 0015112 183.5370 176.5761 15.20144432  2344
2025-313AD              
1 67275U 25313AD  26012.94903198  .00006699  00000+0  31147-3 0  9993
2 67275  97.4086  90.1481 0014316 186.4443 173.6611 15.20203796  2340
2025-313AE              
1 67276U 25313AE  26012.94899655  .00005917  00000+0  27551-3 0  9992
2 67276  97.4091  90.1486 0014271 186.4439 173.6615 15.20203612  2348
2025-313AF              
1 67277U 25313AF  26012.94916826  .00005404  00000+0  25216-3 0  9990
2 67277  97.4093  90.1490 0014263 186.2739 173.8320 15.20171385  2344
2025-313AG              
1 67278U 25313AG  26012.94902874  .00005571  00000+0  25975-3 0  9996
2 67278  97.4095  90.1498 0014221 186.1784 173.9278 15.20187601  2350
GALAPAGOS-UTE-SWSU      
1 67279U 25313AH  26012.94852618  .00006283  00000+0  29184-3 0  9994
2 67279  97.4107  90.1525 0014801 183.1385 176.9760 15.20260344  2348
