CCSDS_OMM_VERS = 2.0
CREATION_DATE  = 
ORIGINATOR     = 

OBJECT_NAME    = ZORKY-2M 7
OBJECT_ID      = 2025-313W
CENTER_NAME    = EARTH
REF_FRAME      = TEME
TIME_SYSTEM    = UTC
MEAN_ELEMENT_THEORY = SGP/SGP4

EPOCH          = 2026-01-12T22:47:57.534144
MEAN_MOTION    = 15.20128461
ECCENTRICITY   = .00154551
INCLINATION    = 97.4123
RA_OF_ASC_NODE = 90.1440
ARG_OF_PERICENTER = 183.9719
MEAN_ANOMALY   = 176.1396

EPHEMERIS_TYPE = 0
CLASSIFICATION_TYPE = U
NORAD_CAT_ID   = 67268
ELEMENT_SET_NO = 999
REV_AT_EPOCH   = 234
BSTAR          = .32084094E-3
MEAN_MOTION_DOT = .689E-4
MEAN_MOTION_DDOT = 0

CCSDS_OMM_VERS = 2.0
CREATION_DATE  = 
ORIGINATOR     = 

OBJECT_NAME    = 2025-313X
OBJECT_ID      = 2025-313X
CENTER_NAME    = EARTH
REF_FRAME      = TEME
TIME_SYSTEM    = UTC
MEAN_ELEMENT_THEORY = SGP/SGP4

EPOCH          = 2026-01-12T22:46:50.291616
MEAN_MOTION    = 15.20298633
ECCENTRICITY   = .00153098
INCLINATION    = 97.4150
RA_OF_ASC_NODE = 90.1599
ARG_OF_PERICENTER = 182.4978
MEAN_ANOMALY   = 177.6184

EPHEMERIS_TYPE = 0
CLASSIFICATION_TYPE = U
NORAD_CAT_ID   = 67269
ELEMENT_SET_NO = 999
REV_AT_EPOCH   = 234
BSTAR          = .47228605E-3
MEAN_MOTION_DOT = .1023E-3
MEAN_MOTION_DDOT = 0

CCSDS_OMM_VERS = 2.0
CREATION_DATE  = 
ORIGINATOR     = 

OBJECT_NAME    = SITRO-TD-3
OBJECT_ID      = 2025-313Y
CENTER_NAME    = EARTH
REF_FRAME      = TEME
TIME_SYSTEM    = UTC
MEAN_ELEMENT_THEORY = SGP/SGP4

EPOCH          = 2026-01-12T21:13:20.726688
MEAN_MOTION    = 15.20142192
ECCENTRICITY   = .00154104
INCLINATION    = 97.4123
RA_OF_ASC_NODE = 90.0895
ARG_OF_PERICENTER = 184.4623
MEAN_ANOMALY   = 175.6478

EPHEMERIS_TYPE = 0
CLASSIFICATION_TYPE = U
NORAD_CAT_ID   = 67270
ELEMENT_SET_NO = 999
REV_AT_EPOCH   = 233
BSTAR          = .36861493E-3
MEAN_MOTION_DOT = .7931E-4
MEAN_MOTION_DDOT = 0

CCSDS_OMM_VERS = 2.0
CREATION_DATE  = 
ORIGINATOR     = 

OBJECT_NAME    = 2025-313Z
OBJECT_ID      = 2025-313Z
CENTER_NAME    = EARTH
REF_FRAME      = TEME
TIME_SYSTEM    = UTC
MEAN_ELEMENT_THEORY = SGP/SGP4

EPOCH          = 2026-01-12T22:48:53.057376
MEAN_MOTION    = 15.19998983
ECCENTRICITY   = .00154512
INCLINATION    = 97.4118
RA_OF_ASC_NODE = 90.1443
ARG_OF_PERICENTER = 179.9947
MEAN_ANOMALY   = 180.1291

EPHEMERIS_TYPE = 0
CLASSIFICATION_TYPE = U
NORAD_CAT_ID   = 67271
ELEMENT_SET_NO = 999
REV_AT_EPOCH   = 234
BSTAR          = .2003872E-3
MEAN_MOTION_DOT = .426E-4
MEAN_MOTION_DDOT = 0

CCSDS_OMM_VERS = 2.0
CREATION_DATE  = 
ORIGINATOR     = 

OBJECT_NAME    = 2025-313AA
OBJECT_ID      = 2025-313AA
CENTER_NAME    = EARTH
REF_FRAME      = TEME
TIME_SYSTEM    = UTC
MEAN_ELEMENT_THEORY = SGP/SGP4

EPOCH          = 2026-01-12T22:46:14.073600
MEAN_MOTION    = 15.20323485
ECCENTRICITY   = .00151759
INCLINATION    = 97.4123
RA_OF_ASC_NODE = 90.1450
ARG_OF_PERICENTER = 184.5144
MEAN_ANOMALY   = 175.5956

EPHEMERIS_TYPE = 0
CLASSIFICATION_TYPE = U
NORAD_CAT_ID   = 67272
ELEMENT_SET_NO = 999
REV_AT_EPOCH   = 234
BSTAR          = .39310235E-3
MEAN_MOTION_DOT = .8507E-4
MEAN_MOTION_DDOT = 0

CCSDS_OMM_VERS = 2.0
CREATION_DATE  = 
ORIGINATOR     = 

OBJECT_NAME    = 2025-313AB
OBJECT_ID      = 2025-313AB
CENTER_NAME    = EARTH
REF_FRAME      = TEME
TIME_SYSTEM    = UTC
MEAN_ELEMENT_THEORY = SGP/SGP4

EPOCH          = 2026-01-12T22:48:40.189824
MEAN_MOTION    = 15.19987722
ECCENTRICITY   = .00143399
INCLINATION    = 97.4136
RA_OF_ASC_NODE = 90.1470
ARG_OF_PERICENTER = 188.5408
MEAN_ANOMALY   = 171.5585

EPHEMERIS_TYPE = 0
CLASSIFICATION_TYPE = U
NORAD_CAT_ID   = 67273
ELEMENT_SET_NO = 999
REV_AT_EPOCH   = 234
BSTAR          = .14550944E-3
MEAN_MOTION_DOT = .3072E-4
MEAN_MOTION_DDOT = 0

CCSDS_OMM_VERS = 2.0
CREATION_DATE  = 
ORIGINATOR     = 

OBJECT_NAME    = 2025-313AC
OBJECT_ID      = 2025-313AC
CENTER_NAME    = EARTH
REF_FRAME      = TEME
TIME_SYSTEM    = UTC
MEAN_ELEMENT_THEORY = SGP/SGP4

EPOCH          = 2026-01-12T22:47:22.863552
MEAN_MOTION    = 15.20144432
ECCENTRICITY   = .00151123
INCLINATION    = 97.4111
RA_OF_ASC_NODE = 90.1521
ARG_OF_PERICENTER = 183.5370
MEAN_ANOMALY   = 176.5761

EPHEMERIS_TYPE = 0
CLASSIFICATION_TYPE = U
NORAD_CAT_ID   = 67274
ELEMENT_SET_NO = 999
REV_AT_EPOCH   = 234
BSTAR          = .2718528E-3
MEAN_MOTION_DOT = .5829E-4
MEAN_MOTION_DDOT = 0

CCSDS_OMM_VERS = 2.0
CREATION_DATE  = 
ORIGINATOR     = 

OBJECT_NAME    = 2025-313AD
OBJECT_ID      = 2025-313AD
CENTER_NAME    = EARTH
REF_FRAME      = TEME
TIME_SYSTEM    = UTC
MEAN_ELEMENT_THEORY = SGP/SGP4

EPOCH          = 2026-01-12T22:46:36.363072
MEAN_MOTION    = 15.20203796
ECCENTRICITY   = .00143168
INCLINATION    = 97.4086
RA_OF_ASC_NODE = 90.1481
ARG_OF_PERICENTER = 186.4443
MEAN_ANOMALY   = 173.6611

EPHEMERIS_TYPE = 0
CLASSIFICATION_TYPE = U
NORAD_CAT_ID   = 67275
ELEMENT_SET_NO = 999
REV_AT_EPOCH   = 234
BSTAR          = .31146713E-3
MEAN_MOTION_DOT = .6699E-4
MEAN_MOTION_DDOT = 0

CCSDS_OMM_VERS = 2.0
CREATION_DATE  = 
ORIGINATOR     = 

OBJECT_NAME    = 2025-313AE
OBJECT_ID      = 2025-313AE
CENTER_NAME    = EARTH
REF_FRAME      = TEME
TIME_SYSTEM    = UTC
MEAN_ELEMENT_THEORY = SGP/SGP4

EPOCH          = 2026-01-12T22:46:33.301920
MEAN_MOTION    = 15.20203612
ECCENTRICITY   = .00142713
INCLINATION    = 97.4091
RA_OF_ASC_NODE = 90.1486
ARG_OF_PERICENTER = 186.4439
MEAN_ANOMALY   = 173.6615

EPHEMERIS_TYPE = 0
CLASSIFICATION_TYPE = U
NORAD_CAT_ID   = 67276
ELEMENT_SET_NO = 999
REV_AT_EPOCH   = 234
BSTAR          = .27550922E-3
MEAN_MOTION_DOT = .5917E-4
MEAN_MOTION_DDOT = 0

CCSDS_OMM_VERS = 2.0
CREATION_DATE  = 
ORIGINATOR     = 

OBJECT_NAME    = 2025-313AF
OBJECT_ID      = 2025-313AF
CENTER_NAME    = EARTH
REF_FRAME      = TEME
TIME_SYSTEM    = UTC
MEAN_ELEMENT_THEORY = SGP/SGP4

EPOCH          = 2026-01-12T22:46:48.137664
MEAN_MOTION    = 15.20171385
ECCENTRICITY   = .0014263
INCLINATION    = 97.4093
RA_OF_ASC_NODE = 90.1490
ARG_OF_PERICENTER = 186.2739
MEAN_ANOMALY   = 173.8320

EPHEMERIS_TYPE = 0
CLASSIFICATION_TYPE = U
NORAD_CAT_ID   = 67277
ELEMENT_SET_NO = 999
REV_AT_EPOCH   = 234
BSTAR          = .25216353E-3
MEAN_MOTION_DOT = .5404E-4
MEAN_MOTION_DDOT = 0

CCSDS_OMM_VERS = 2.0
CREATION_DATE  = 
ORIGINATOR     = 

OBJECT_NAME    = 2025-313AG
OBJECT_ID      = 2025-313AG
CENTER_NAME    = EARTH
REF_FRAME      = TEME
TIME_SYSTEM    = UTC
MEAN_ELEMENT_THEORY = SGP/SGP4

EPOCH          = 2026-01-12T22:46:36.083136
MEAN_MOTION    = 15.20187601
ECCENTRICITY   = .00142215
INCLINATION    = 97.4095
RA_OF_ASC_NODE = 90.1498
ARG_OF_PERICENTER = 186.1784
MEAN_ANOMALY   = 173.9278

EPHEMERIS_TYPE = 0
CLASSIFICATION_TYPE = U
NORAD_CAT_ID   = 67278
ELEMENT_SET_NO = 999
REV_AT_EPOCH   = 235
BSTAR          = .25974827E-3
MEAN_MOTION_DOT = .5571E-4
MEAN_MOTION_DDOT = 0

CCSDS_OMM_VERS = 2.0
CREATION_DATE  = 
ORIGINATOR     = 

OBJECT_NAME    = GALAPAGOS-UTE-SWSU
OBJECT_ID      = 2025-313AH
CENTER_NAME    = EARTH
REF_FRAME      = TEME
TIME_SYSTEM    = UTC
MEAN_ELEMENT_THEORY = SGP/SGP4

EPOCH          = 2026-01-12T22:45:52.661952
MEAN_MOTION    = 15.20260344
ECCENTRICITY   = .00148019
INCLINATION    = 97.4107
RA_OF_ASC_NODE = 90.1525
ARG_OF_PERICENTER = 183.1385
MEAN_ANOMALY   = 176.9760

EPHEMERIS_TYPE = 0
CLASSIFICATION_TYPE = U
NORAD_CAT_ID   = 67279
ELEMENT_SET_NO = 999
REV_AT_EPOCH   = 234
BSTAR          = .29183588E-3
MEAN_MOTION_DOT = .6283E-4
MEAN_MOTION_DDOT = 0

